NORAD_CAT_ID,OBJECT_NAME,OBJECT_TYPE,EPOCH,MEAN_MOTION,ECCENTRICITY,INCLINATION,RA_OF_ASC_NODE,ARG_OF_PERICENTER,MEAN_ANOMALY,BSTAR,MEAN_MOTION_DOT,MEAN_MOTION_DDOT,TLE_LINE0,TLE_LINE1,TLE_LINE2,SEMIMAJOR_AXIS,PERIOD,APOGEE,PERIGEE,DECAYED
49138.0,STARLINK-3058,PAYLOAD,2023-06-23 15:55:34,14.98335853,0.0003428,69.9997,270.6692,270.4094,89.6672,7.4493e-05,7.96e-06,0.0,0 STARLINK-3058,1 49138U 21082J   23174.66359682  .00000796  00000-0  74493-4 0  9993,2 49138  69.9997 270.6692 0003428 270.4094  89.6672 14.98335853 97688,6950.175,96.107,574.422,569.657,0.0
49138.0,STARLINK-3058,PAYLOAD,2023-06-24 07:56:56,14.98323103,0.0003443,69.9994,268.9856,270.9204,89.156,-3.3139e-06,-1.33e-06,0.0,0 STARLINK-3058,1 49138U 21082J   23175.33120649 -.00000133  00000-0 -33139-5 0  9997,2 49138  69.9994 268.9856 0003443 270.9204  89.1560 14.98323103 97789,6950.214,96.107,574.472,569.686,0.0
49138.0,STARLINK-3058,PAYLOAD,2023-06-24 23:58:16,14.98329243,0.0003462,69.9995,267.3021,270.8156,89.2606,-2.4463e-05,-3.85e-06,0.0,0 STARLINK-3058,1 49138U 21082J   23175.99880383 -.00000385  00000-0 -24463-4 0  9995,2 49138  69.9995 267.3021 0003462 270.8156  89.2606 14.98329243 97887,6950.195,96.107,574.466,569.654,0.0
49138.0,STARLINK-3058,PAYLOAD,2023-06-25 15:59:36,14.98337212,0.0003319,69.9994,265.6187,266.728,93.3499,5.7301e-05,5.91e-06,0.0,0 STARLINK-3058,1 49138U 21082J   23176.66639561  .00000591  00000-0  57301-4 0  9994,2 49138  69.9994 265.6187 0003319 266.7280  93.3499 14.98337212 97985,6950.171,96.107,574.342,569.729,0.0
49138.0,STARLINK-3058,PAYLOAD,2023-06-26 09:37:05,14.9832898,0.0003386,69.9995,263.7672,269.8495,90.2276,8.9334e-05,9.73e-06,0.0,0 STARLINK-3058,1 49138U 21082J   23177.40075866  .00000973  00000-0  89334-4 0  9994,2 49138  69.9995 263.7672 0003386 269.8495  90.2276 14.98328980 98094,6950.196,96.107,574.414,569.708,0.0
49138.0,STARLINK-3058,PAYLOAD,2023-06-26 16:01:37,14.98333517,0.0003216,69.9996,263.094,265.5348,94.5444,0.00013486,1.517e-05,0.0,0 STARLINK-3058,1 49138U 21082J   23177.66779417  .00001517  00000-0  13486-3 0  9994,2 49138  69.9996 263.0940 0003216 265.5348  94.5444 14.98333517 98139,6950.182,96.107,574.282,569.812,0.0
49138.0,STARLINK-3058,PAYLOAD,2023-06-27 11:15:14,14.98326411,0.000345,69.9999,261.0748,268.0774,91.999,2.8345e-05,2.45e-06,0.0,0 STARLINK-3058,1 49138U 21082J   23178.46892061  .00000245  00000-0  28345-4 0  9992,2 49138  69.9999 261.0748 0003450 268.0774  91.9990 14.98326411 98252,6950.204,96.107,574.467,569.671,0.0
49138.0,STARLINK-3058,PAYLOAD,2023-06-28 04:52:45,14.98313515,0.0003108,69.9998,259.2236,265.3139,94.7665,-0.00021407,-2.645e-05,0.0,0 STARLINK-3058,1 49138U 21082J   23179.20329995 -.00002645  00000-0 -21407-3 0  9995,2 49138  69.9998 259.2236 0003108 265.3139  94.7665 14.98313515 98360,6950.244,96.108,574.269,569.949,0.0
49138.0,STARLINK-3058,PAYLOAD,2023-06-28 22:30:13,14.98319817,0.0003361,69.9993,257.3722,264.8034,95.2741,-0.00012173,-1.545e-05,0.0,0 STARLINK-3058,1 49138U 21082J   23179.93766156 -.00001545  00000-0 -12173-3 0  9997,2 49138  69.9993 257.3722 0003361 264.8034  95.2741 14.98319817 98477,6950.224,96.108,574.425,569.753,0.0
49138.0,STARLINK-3058,PAYLOAD,2023-06-29 11:19:17,14.98327788,0.0003705,69.9981,256.0238,266.2045,93.869,8.6102e-05,9.34e-06,0.0,0 STARLINK-3058,1 49138U 21082J   23180.47173323  .00000934  00000-0  86102-4 0  9999,2 49138  69.9981 256.0238 0003705 266.2045  93.8690 14.98327788 98554,6950.2,96.107,574.64,569.49,0.0
49138.0,STARLINK-3058,PAYLOAD,2023-06-30 22:34:13,14.98341766,0.0003492,69.9987,252.3216,268.4261,91.6498,0.000362,4.23e-05,0.0,0 STARLINK-3058,1 49138U 21082J   23181.94043445  .00004230  00000-0  36200-3 0  9999,2 49138  69.9987 252.3216 0003492 268.4261  91.6498 14.98341766 98770,6950.157,96.106,574.449,569.595,0.0
49138.0,STARLINK-3058,PAYLOAD,2023-07-01 08:11:03,14.98335071,0.0003453,69.9987,251.3117,266.7164,93.36,-2.2737e-05,-3.64e-06,0.0,0 STARLINK-3058,1 49138U 21082J   23182.34100789 -.00000364  00000-0 -22737-4 0  9996,2 49138  69.9987 251.3117 0003453 266.7164  93.3600 14.98335071 98832,6950.177,96.107,574.442,569.642,0.0
49138.0,STARLINK-3058,PAYLOAD,2023-07-02 11:25:19,14.98340681,0.0003273,69.9992,248.4498,264.7722,95.3064,-0.00010646,-1.363e-05,0.0,0 STARLINK-3058,1 49138U 21082J   23183.47591938 -.00001363  00000-0 -10646-3 0  9996,2 49138  69.9992 248.4498 0003273 264.7722  95.3064 14.98340681 99004,6950.16,96.106,574.3,569.75,0.0
49138.0,STARLINK-3058,PAYLOAD,2023-07-03 11:27:19,14.98334338,0.0003544,69.9987,245.9248,269.9458,90.1295,6.414e-05,6.72e-06,0.0,0 STARLINK-3058,1 49138U 21082J   23184.47731333  .00000672  00000-0  64140-4 0  9991,2 49138  69.9987 245.9248 0003544 269.9458  90.1295 14.98334338 99154,6950.179,96.107,574.508,569.581,0.0
49138.0,STARLINK-3058,PAYLOAD,2023-07-04 11:29:21,14.98329011,0.0003506,69.9987,243.4,269.5093,90.5664,-3.2073e-05,-4.76e-06,0.0,0 STARLINK-3058,1 49138U 21082J   23185.47871789 -.00000476  00000-0 -32073-4 0  9996,2 49138  69.9987 243.4000 0003506 269.5093  90.5664 14.98329011 99305,6950.196,96.107,574.498,569.624,0.0
49138.0,STARLINK-3058,PAYLOAD,2023-07-05 13:07:30,14.98324631,0.0003545,69.9988,240.7069,269.0194,91.0559,0.00010321,1.138e-05,0.0,0 STARLINK-3058,1 49138U 21082J   23186.54687651  .00001138  00000-0  10321-3 0  9993,2 49138  69.9988 240.7069 0003545 269.0194  91.0559 14.98324631 99460,6950.209,96.107,574.538,569.611,0.0
49138.0,STARLINK-3058,PAYLOAD,2023-07-06 13:09:31,14.9832768,0.000362,69.9986,238.1822,269.4668,90.6076,2.7989e-05,2.41e-06,0.0,0 STARLINK-3058,1 49138U 21082J   23187.54827647  .00000241  00000-0  27989-4 0  9998,2 49138  69.9986 238.1822 0003620 269.4668  90.6076 14.98327680 99613,6950.2,96.107,574.581,569.549,0.0
49138.0,STARLINK-3058,PAYLOAD,2023-07-07 09:59:15,14.98334705,0.0003386,69.9988,235.9932,259.36,100.7177,1.7969e-05,1.21e-06,0.0,0 STARLINK-3058,1 49138U 21082J   23188.41615177  .00000121  00000-0  17969-4 0  9992,2 49138  69.9988 235.9932 0003386 259.3600 100.7177 14.98334705 99740,6950.178,96.107,574.397,569.69,0.0
49138.0,STARLINK-3058,PAYLOAD,2023-07-08 10:01:16,14.98330428,0.000357,69.9989,233.4684,268.0956,91.9794,3.2185e-05,2.91e-06,0.0,0 STARLINK-3058,1 49138U 21082J   23189.41755286  .00000291  00000-0  32185-4 0  9994,2 49138  69.9989 233.4684 0003570 268.0956  91.9794 14.98330428 99894,6950.192,96.107,574.538,569.575,0.0
49138.0,STARLINK-3058,PAYLOAD,2023-07-08 19:38:04,14.98368177,0.0003737,69.9994,232.4585,273.5623,86.5109,-0.00069783,-8.418e-05,0.0,0 STARLINK-3058,1 49138U 21082J   23189.81810434 -.00008418  00000-0 -69783-3 0  9999,2 49138  69.9994 232.4585 0003737 273.5623  86.5109 14.98368177 99955,6950.075,96.105,574.537,569.343,0.0
49138.0,STARLINK-3058,PAYLOAD,2023-07-09 03:38:45,14.98329096,0.000346,69.9993,231.6172,268.383,91.6932,-4.1562e-05,-5.89e-06,0.0,0 STARLINK-3058,1 49138U 21082J   23190.15191600 -.00000589  00000-0 -41562-4 0  9992,2 49138  69.9993 231.6172 0003460 268.3830  91.6932 14.98329096100009,6950.196,96.107,574.465,569.656,0.0
49138.0,STARLINK-3058,PAYLOAD,2023-07-10 03:40:46,14.98330269,0.0003656,69.9989,229.0924,269.473,90.6011,3.722e-05,3.51e-06,0.0,0 STARLINK-3058,1 49138U 21082J   23191.15331313  .00000351  00000-0  37220-4 0  9991,2 49138  69.9989 229.0924 0003656 269.4730  90.6011 14.98330269100155,6950.192,96.107,574.598,569.516,0.0
49138.0,STARLINK-3058,PAYLOAD,2023-07-11 03:42:47,14.98330064,0.0003712,69.9988,226.5674,269.611,90.4623,8.013e-05,8.63e-06,0.0,0 STARLINK-3058,1 49138U 21082J   23192.15471176  .00000863  00000-0  80130-4 0  9990,2 49138  69.9988 226.5674 0003712 269.6110  90.4623 14.98330064100302,6950.193,96.107,574.638,569.478,0.0
49138.0,STARLINK-3058,PAYLOAD,2023-07-13 11:47:29,14.98331163,0.0003714,69.9988,220.6758,269.0029,91.0704,-8.5928e-06,-1.96e-06,0.0,0 STARLINK-3058,1 49138U 21082J   23194.49131198 -.00000196  00000-0 -85928-5 0  9998,2 49138  69.9988 220.6758 0003714 269.0029  91.0704 14.98331163100651,6950.189,96.107,574.636,569.473,0.0
49138.0,STARLINK-3058,PAYLOAD,2023-07-14 11:49:30,14.98331758,0.0003742,69.9987,218.151,268.8977,91.1753,4.2162e-05,4.1e-06,0.0,0 STARLINK-3058,1 49138U 21082J   23195.49270956  .00000410  00000-0  42162-4 0  9994,2 49138  69.9987 218.1510 0003742 268.8977  91.1753 14.98331758100800,6950.187,96.107,574.653,569.452,0.0
49138.0,STARLINK-3058,PAYLOAD,2023-07-15 11:51:30,14.98334391,0.0003746,69.9986,215.6259,269.1468,90.9262,5.9226e-05,6.14e-06,0.0,0 STARLINK-3058,1 49138U 21082J   23196.49410553  .00000614  00000-0  59226-4 0  9999,2 49138  69.9986 215.6259 0003746 269.1468  90.9262 14.98334391100958,6950.179,96.107,574.648,569.441,0.0
49138.0,STARLINK-3058,PAYLOAD,2023-07-16 02:16:43,14.98327327,0.0003644,69.9987,214.1108,268.4363,91.6379,-3.2083e-05,-4.76e-06,0.0,0 STARLINK-3058,1 49138U 21082J   23197.09495203 -.00000476  00000-0 -32083-4 0  9991,2 49138  69.9987 214.1108 0003644 268.4363  91.6379 14.98327327101048,6950.201,96.107,574.599,569.534,0.0
49138.0,STARLINK-3058,PAYLOAD,2023-07-17 10:19:24,14.98330329,0.0003691,69.9988,210.745,267.4078,92.6659,-7.2826e-06,-1.8e-06,0.0,0 STARLINK-3058,1 49138U 21082J   23198.43015030 -.00000180  00000-0 -72826-5 0  9998,2 49138  69.9988 210.7450 0003691 267.4078  92.6659 14.98330329101245,6950.192,96.107,574.622,569.492,0.0
49138.0,STARLINK-3058,PAYLOAD,2023-07-18 10:21:25,14.98331168,0.0003776,69.9986,208.22,268.3722,91.7005,8.9824e-05,9.79e-06,0.0,0 STARLINK-3058,1 49138U 21082J   23199.43154677  .00000979  00000-0  89824-4 0  9999,2 49138  69.9986 208.2200 0003776 268.3722  91.7005 14.98331168101391,6950.189,96.107,574.679,569.43,0.0
49138.0,STARLINK-3058,PAYLOAD,2023-07-19 10:23:26,14.98328908,0.0003772,69.999,205.6955,268.4964,91.5763,1.5718e-05,9.4e-07,0.0,0 STARLINK-3058,1 49138U 21082J   23200.43295032  .00000094  00000-0  15718-4 0  9992,2 49138  69.9990 205.6955 0003772 268.4964  91.5763 14.98328908101543,6950.196,96.107,574.683,569.44,0.0
